NORAD_CAT_ID,OBJECT_NAME,OBJECT_TYPE,EPOCH,MEAN_MOTION,ECCENTRICITY,INCLINATION,RA_OF_ASC_NODE,ARG_OF_PERICENTER,MEAN_ANOMALY,BSTAR,MEAN_MOTION_DOT,MEAN_MOTION_DDOT,TLE_LINE0,TLE_LINE1,TLE_LINE2,SEMIMAJOR_AXIS,PERIOD,APOGEE,PERIGEE,DECAYED
52661.0,STARLINK-4042,PAYLOAD,2023-02-08 19:04:42,15.08885541,8.14e-05,53.2172,163.9726,96.5327,263.5758,0.00066812,0.00010374,0.0,0 STARLINK-4042,1 52661U 22053F   23039.79493344  .00010374  00000-0  66812-3 0  9993,2 52661  53.2172 163.9726 0000814  96.5327 263.5758 15.08885541 41221,6917.741,95.435,540.169,539.043,0.0
52661.0,STARLINK-4042,PAYLOAD,2023-02-09 01:26:16,15.0883123,0.0001042,53.2176,162.7843,101.829,258.2819,-0.00050139,-8.256e-05,0.0,0 STARLINK-4042,1 52661U 22053F   23040.05991050 -.00008256  00000-0 -50139-3 0  9994,2 52661  53.2176 162.7843 0001042 101.8290 258.2819 15.08831230 41264,6917.907,95.438,540.493,539.051,0.0
52661.0,STARLINK-4042,PAYLOAD,2023-02-09 10:58:35,15.0882205,0.0001362,53.2164,161.0006,99.5883,260.5263,-0.00051044,-8.398e-05,0.0,0 STARLINK-4042,1 52661U 22053F   23040.45735729 -.00008398  00000-0 -51044-3 0  9990,2 52661  53.2164 161.0006 0001362  99.5883 260.5263 15.08822050 41326,6917.935,95.439,540.742,538.858,0.0
52661.0,STARLINK-4042,PAYLOAD,2023-02-09 18:55:31,15.08833807,0.0001492,53.2179,159.5131,108.4647,251.6507,0.00013475,1.857e-05,0.0,0 STARLINK-4042,1 52661U 22053F   23040.78855693  .00001857  00000-0  13475-3 0  9996,2 52661  53.2179 159.5131 0001492 108.4647 251.6507 15.08833807 41374,6917.899,95.438,540.796,538.732,0.0
52661.0,STARLINK-4042,PAYLOAD,2023-02-10 01:17:04,15.0881814,0.0001261,53.2172,158.3229,91.0511,269.0625,-9.8805e-06,-4.45e-06,0.0,0 STARLINK-4042,1 52661U 22053F   23041.05352630 -.00000445  00000-0 -98805-5 0  9996,2 52661  53.2172 158.3229 0001261  91.0511 269.0625 15.08818140 41415,6917.947,95.439,540.685,538.94,0.0
52661.0,STARLINK-4042,PAYLOAD,2023-02-10 14:00:10,15.08857885,0.0001042,53.2167,155.9445,91.579,268.5322,0.0032091,0.00051181,0.0,0 STARLINK-4042,1 52661U 22053F   23041.58345038  .00051181  00000-0  32091-2 0  9991,2 52661  53.2167 155.9445 0001042  91.5790 268.5322 15.08857885 41498,6917.826,95.436,540.412,538.97,0.0
52661.0,STARLINK-4042,PAYLOAD,2023-02-11 01:07:52,15.08859042,0.0001579,53.2171,153.8638,55.0527,305.0614,0.0037277,0.00059571,0.0,0 STARLINK-4042,1 52661U 22053F   23042.04713428  .00059571  00000-0  37277-2 0  9997,2 52661  53.2171 153.8638 0001579  55.0527 305.0614 15.08859042 41568,6917.822,95.436,540.78,538.595,0.0
52661.0,STARLINK-4042,PAYLOAD,2023-02-11 17:01:43,15.08865195,7.13e-05,53.217,150.889,61.1496,298.9567,0.0026786,0.00042629,0.0,0 STARLINK-4042,1 52661U 22053F   23042.70953099  .00042629  00000-0  26786-2 0  9999,2 52661  53.2170 150.8890 0000713  61.1496 298.9567 15.08865195 41660,6917.803,95.436,540.162,539.175,0.0
52661.0,STARLINK-4042,PAYLOAD,2023-02-11 18:37:06,15.08872589,0.0001478,53.2169,150.5915,70.2045,289.9106,0.0027664,0.00044054,0.0,0 STARLINK-4042,1 52661U 22053F   23042.77577231  .00044054  00000-0  27664-2 0  9996,2 52661  53.2169 150.5915 0001478  70.2045 289.9106 15.08872589 41678,6917.781,95.435,540.668,538.623,0.0
52661.0,STARLINK-4042,PAYLOAD,2023-02-12 08:55:35,15.08842169,0.0001201,53.2172,147.9158,75.2945,284.818,0.00081523,0.00012711,0.0,0 STARLINK-4042,1 52661U 22053F   23043.37193752  .00012711  00000-0  81523-3 0  9995,2 52661  53.2172 147.9158 0001201  75.2945 284.8180 15.08842169 41766,6917.874,95.437,540.57,538.908,0.0
52661.0,STARLINK-4042,PAYLOAD,2023-02-12 13:41:44,15.08856369,0.0001053,53.217,147.0233,72.3993,287.7114,0.0021293,0.00033778,0.0,0 STARLINK-4042,1 52661U 22053F   23043.57065733  .00033778  00000-0  21293-2 0  9997,2 52661  53.2170 147.0233 0001053  72.3993 287.7114 15.08856369 41794,6917.83,95.437,540.424,538.967,0.0
52661.0,STARLINK-4042,PAYLOAD,2023-02-12 16:52:30,15.08865344,0.0001348,53.2167,146.4287,79.0155,281.0989,0.0024606,0.00039117,0.0,0 STARLINK-4042,1 52661U 22053F   23043.70313611  .00039117  00000-0  24606-2 0  9997,2 52661  53.2167 146.4287 0001348  79.0155 281.0989 15.08865344 41816,6917.803,95.436,540.6,538.735,0.0
52661.0,STARLINK-4042,PAYLOAD,2023-02-12 23:14:03,15.08846403,0.0002372,53.2176,145.2396,85.0693,275.057,0.0012098,0.00019022,0.0,0 STARLINK-4042,1 52661U 22053F   23043.96810142  .00019022  00000-0  12098-2 0  9991,2 52661  53.2176 145.2396 0002372  85.0693 275.0570 15.08846403 41854,6917.861,95.437,541.367,538.085,0.0
52661.0,STARLINK-4042,PAYLOAD,2023-02-13 13:32:31,15.08877156,0.0001433,53.217,142.564,94.27,265.8456,0.0022534,0.00035794,0.0,0 STARLINK-4042,1 52661U 22053F   23044.56425113  .00035794  00000-0  22534-2 0  9998,2 52661  53.2170 142.5640 0001433  94.2700 265.8456 15.08877156 41947,6917.767,95.435,540.623,538.641,0.0
52661.0,STARLINK-4042,PAYLOAD,2023-02-13 23:04:50,15.0885708,0.0001556,53.2172,140.7792,79.4819,280.6349,0.00064861,0.00010054,0.0,0 STARLINK-4042,1 52661U 22053F   23044.96169156  .00010054  00000-0  64861-3 0  9996,2 52661  53.2172 140.7792 0001556  79.4819 280.6349 15.08857080 42007,6917.828,95.436,540.77,538.617,0.0
52661.0,STARLINK-4042,PAYLOAD,2023-02-14 07:01:45,15.08832239,7.4e-05,53.2162,139.2915,87.1566,272.951,-8.4722e-05,-1.635e-05,0.0,0 STARLINK-4042,1 52661U 22053F   23045.29289200 -.00001635  00000-0 -84722-4 0  9992,2 52661  53.2162 139.2915 0000740  87.1566 272.9510 15.08832239 42053,6917.904,95.438,540.281,539.257,0.0
52661.0,STARLINK-4042,PAYLOAD,2023-02-14 13:23:18,15.0884825,8.87e-05,53.2163,138.1023,94.8866,265.2227,0.0023272,0.00036952,0.0,0 STARLINK-4042,1 52661U 22053F   23045.55785437  .00036952  00000-0  23272-2 0  9993,2 52661  53.2163 138.1023 0000887  94.8866 265.2227 15.08848250 42096,6917.855,95.437,540.334,539.107,0.0
52661.0,STARLINK-4042,PAYLOAD,2023-02-14 16:34:04,15.08855047,6.56e-05,53.2163,137.5077,90.6109,269.4959,0.0028783,0.00045837,0.0,0 STARLINK-4042,1 52661U 22053F   23045.69033477  .00045837  00000-0  28783-2 0  9992,2 52661  53.2163 137.5077 0000656  90.6109 269.4959 15.08855047 42119,6917.834,95.437,540.153,539.246,0.0
52661.0,STARLINK-4042,PAYLOAD,2023-02-14 22:55:37,15.08839588,7.66e-05,53.2174,136.3208,104.0505,256.0573,0.0011169,0.00017532,0.0,0 STARLINK-4042,1 52661U 22053F   23045.95529680  .00017532  00000-0  11169-2 0  9998,2 52661  53.2174 136.3208 0000766 104.0505 256.0573 15.08839588 42156,6917.882,95.438,540.277,539.217,0.0
52661.0,STARLINK-4042,PAYLOAD,2023-02-15 13:14:05,15.08876617,7.9e-05,53.2163,133.6424,93.0561,267.0522,0.0026868,0.00042775,0.0,0 STARLINK-4042,1 52661U 22053F   23046.55145321  .00042775  00000-0  26868-2 0  9990,2 52661  53.2163 133.6424 0000790  93.0561 267.0522 15.08876617 42240,6917.768,95.435,540.18,539.087,0.0
52661.0,STARLINK-4042,PAYLOAD,2023-02-15 18:00:14,15.08907052,8.84e-05,53.2157,132.7493,86.3543,273.755,0.0035452,0.00056692,0.0,0 STARLINK-4042,1 52661U 22053F   23046.75016543  .00056692  00000-0  35452-2 0  9997,2 52661  53.2157 132.7493 0000884  86.3543 273.7550 15.08907052 42274,6917.675,95.433,540.152,538.929,0.0
52661.0,STARLINK-4042,PAYLOAD,2023-02-16 11:29:28,15.08888356,7.91e-05,53.2162,129.4795,134.1888,225.9169,0.0035976,0.00057511,0.0,0 STARLINK-4042,1 52661U 22053F   23047.47879918  .00057511  00000-0  35976-2 0  9992,2 52661  53.2162 129.4795 0000791 134.1888 225.9169 15.08888356 42381,6917.733,95.434,540.145,539.05,0.0
52661.0,STARLINK-4042,PAYLOAD,2023-02-16 13:04:51,15.08898859,7.85e-05,53.2161,129.1821,133.7971,226.3086,0.0040603,0.00065033,0.0,0 STARLINK-4042,1 52661U 22053F   23047.54503682  .00065033  00000-0  40603-2 0  9993,2 52661  53.2161 129.1821 0000785 133.7971 226.3086 15.08898859 42391,6917.7,95.434,540.109,539.022,0.0
52661.0,STARLINK-4042,PAYLOAD,2023-02-16 14:40:14,15.08905985,8.02e-05,53.2161,128.8846,133.5258,226.58,0.0036626,0.00058593,0.0,0 STARLINK-4042,1 52661U 22053F   23047.61127392  .00058593  00000-0  36626-2 0  9994,2 52661  53.2161 128.8846 0000802 133.5258 226.5800 15.08905985 42407,6917.679,95.433,540.099,538.989,0.0
52661.0,STARLINK-4042,PAYLOAD,2023-02-17 11:20:17,15.08781816,0.0001248,53.2164,125.0192,91.4073,268.7062,0.002625,0.00041669,0.0,0 STARLINK-4042,1 52661U 22053F   23048.47242461  .00041669  00000-0  26250-2 0  9992,2 52661  53.2164 125.0192 0001248  91.4073 268.7062 15.08781816 42532,6918.058,95.441,540.787,539.06,0.0
52661.0,STARLINK-4042,PAYLOAD,2023-02-17 12:55:40,15.08781217,0.000128,53.2165,124.7216,96.4409,263.6729,0.0026887,0.00042693,0.0,0 STARLINK-4042,1 52661U 22053F   23048.53866728  .00042693  00000-0  26887-2 0  9991,2 52661  53.2165 124.7216 0001280  96.4409 263.6729 15.08781217 42540,6918.06,95.441,540.811,539.04,0.0
52661.0,STARLINK-4042,PAYLOAD,2023-02-17 16:06:27,15.08791552,0.0001292,53.2165,124.1272,95.1367,264.9773,0.0022314,0.00035356,0.0,0 STARLINK-4042,1 52661U 22053F   23048.67115219  .00035356  00000-0  22314-2 0  9997,2 52661  53.2165 124.1272 0001292  95.1367 264.9773 15.08791552 42566,6918.028,95.441,540.787,539.0,0.0
52661.0,STARLINK-4042,PAYLOAD,2023-02-18 14:21:52,15.08853288,0.0001324,53.2168,119.9647,90.8528,269.2616,0.002122,0.00033658,0.0,0 STARLINK-4042,1 52661U 22053F   23049.59852216  .00033658  00000-0  21220-2 0  9992,2 52661  53.2168 119.9647 0001324  90.8528 269.2616 15.08853288 42709,6917.84,95.437,540.621,538.789,0.0
52661.0,STARLINK-4042,PAYLOAD,2023-02-19 11:01:52,15.08881674,0.0001391,53.2167,116.0992,88.8798,271.2353,0.0015835,0.00025032,0.0,0 STARLINK-4042,1 52661U 22053F   23050.45962967  .00025032  00000-0  15835-2 0  9996,2 52661  53.2167 116.0992 0001391  88.8798 271.2353 15.08881674 42834,6917.753,95.435,540.58,538.656,0.0
52661.0,STARLINK-4042,PAYLOAD,2023-02-19 14:12:37,15.08886126,0.0001405,53.2167,115.5044,89.6324,270.483,0.0014743,0.00023283,0.0,0 STARLINK-4042,1 52661U 22053F   23050.59210572  .00023283  00000-0  14743-2 0  9992,2 52661  53.2167 115.5044 0001405  89.6324 270.4830 15.08886126 42856,6917.739,95.435,540.576,538.632,0.0
